{"fetched_at":"2026-07-23T17:55:34.243Z","source":"https://celestrak.org/NORAD/elements/gp.php?NAME=HULIANWANG&FORMAT=JSON","constellation":"guowang","records":[{"OBJECT_NAME":"HULIANWANG DIGUI-124","OBJECT_ID":"2025-295F","EPOCH":"2026-07-22T19:48:05.297184","CLASSIFICATION_TYPE":"U","MEAN_MOTION":13.29329586,"ECCENTRICITY":0.00011423,"INCLINATION":49.9986,"RA_OF_ASC_NODE":257.524,"ARG_OF_PERICENTER":221.3324,"MEAN_ANOMALY":138.7462,"EPHEMERIS_TYPE":0,"NORAD_CAT_ID":67064,"ELEMENT_SET_NO":999,"REV_AT_EPOCH":3024,"BSTAR":0.000073384163,"MEAN_MOTION_DOT":-9e-7,"MEAN_MOTION_DDOT":0},{"OBJECT_NAME":"HULIANWANG DIGUI-125","OBJECT_ID":"2025-295G","EPOCH":"2026-07-23T04:37:14.954016","CLASSIFICATION_TYPE":"U","MEAN_MOTION":13.29330274,"ECCENTRICITY":0.00011135,"INCLINATION":49.9976,"RA_OF_ASC_NODE":256.115,"ARG_OF_PERICENTER":221.0573,"MEAN_ANOMALY":139.0216,"EPHEMERIS_TYPE":0,"NORAD_CAT_ID":67065,"ELEMENT_SET_NO":999,"REV_AT_EPOCH":3029,"BSTAR":0.000081454694,"MEAN_MOTION_DOT":-8.6e-7,"MEAN_MOTION_DDOT":0},{"OBJECT_NAME":"HULIANWANG DIGUI-126","OBJECT_ID":"2025-295H","EPOCH":"2026-07-22T21:12:11.517696","CLASSIFICATION_TYPE":"U","MEAN_MOTION":13.29323154,"ECCENTRICITY":0.00011464,"INCLINATION":49.9981,"RA_OF_ASC_NODE":257.1548,"ARG_OF_PERICENTER":216.1908,"MEAN_ANOMALY":143.8887,"EPHEMERIS_TYPE":0,"NORAD_CAT_ID":67066,"ELEMENT_SET_NO":999,"REV_AT_EPOCH":3025,"BSTAR":0.000067336632,"MEAN_MOTION_DOT":-9.3e-7,"MEAN_MOTION_DDOT":0},{"OBJECT_NAME":"HULIANWANG DIGUI-127","OBJECT_ID":"2025-295J","EPOCH":"2026-07-23T04:13:03.906624","CLASSIFICATION_TYPE":"U","MEAN_MOTION":13.29331441,"ECCENTRICITY":0.00011446,"INCLINATION":49.9998,"RA_OF_ASC_NODE":256.0679,"ARG_OF_PERICENTER":220.771,"MEAN_ANOMALY":139.3076,"EPHEMERIS_TYPE":0,"NORAD_CAT_ID":67067,"ELEMENT_SET_NO":999,"REV_AT_EPOCH":3029,"BSTAR":0.000076905096,"MEAN_MOTION_DOT":-8.8e-7,"MEAN_MOTION_DDOT":0},{"OBJECT_NAME":"HULIANWANG DIGUI-128","OBJECT_ID":"2025-311A","EPOCH":"2026-07-21T18:28:02.116416","CLASSIFICATION_TYPE":"U","MEAN_MOTION":13.2932385,"ECCENTRICITY":0.0000909,"INCLINATION":50.0102,"RA_OF_ASC_NODE":351.5303,"ARG_OF_PERICENTER":97.0176,"MEAN_ANOMALY":263.08,"EPHEMERIS_TYPE":0,"NORAD_CAT_ID":67236,"ELEMENT_SET_NO":999,"REV_AT_EPOCH":2794,"BSTAR":0.000028354518,"MEAN_MOTION_DOT":-0.00000111,"MEAN_MOTION_DDOT":0},{"OBJECT_NAME":"HULIANWANG DIGUI-129","OBJECT_ID":"2025-311B","EPOCH":"2026-07-22T19:55:34.271328","CLASSIFICATION_TYPE":"U","MEAN_MOTION":13.29325135,"ECCENTRICITY":0.00008437,"INCLINATION":50.0093,"RA_OF_ASC_NODE":347.7801,"ARG_OF_PERICENTER":101.969,"MEAN_ANOMALY":258.1277,"EPHEMERIS_TYPE":0,"NORAD_CAT_ID":67237,"ELEMENT_SET_NO":999,"REV_AT_EPOCH":2808,"BSTAR":0.000044212776,"MEAN_MOTION_DOT":-0.00000104,"MEAN_MOTION_DDOT":0},{"OBJECT_NAME":"HULIANWANG DIGUI-130","OBJECT_ID":"2025-311C","EPOCH":"2026-07-22T15:43:03.810144","CLASSIFICATION_TYPE":"U","MEAN_MOTION":13.29323896,"ECCENTRICITY":0.00009222,"INCLINATION":50.0076,"RA_OF_ASC_NODE":348.8101,"ARG_OF_PERICENTER":100.2192,"MEAN_ANOMALY":259.8785,"EPHEMERIS_TYPE":0,"NORAD_CAT_ID":67238,"ELEMENT_SET_NO":999,"REV_AT_EPOCH":2805,"BSTAR":0.000042855629,"MEAN_MOTION_DOT":-0.00000104,"MEAN_MOTION_DDOT":0},{"OBJECT_NAME":"HULIANWANG DIGUI-131","OBJECT_ID":"2025-311D","EPOCH":"2026-07-22T15:55:06.716352","CLASSIFICATION_TYPE":"U","MEAN_MOTION":13.29323593,"ECCENTRICITY":0.00009326,"INCLINATION":50.007,"RA_OF_ASC_NODE":348.8453,"ARG_OF_PERICENTER":100.765,"MEAN_ANOMALY":259.3327,"EPHEMERIS_TYPE":0,"NORAD_CAT_ID":67239,"ELEMENT_SET_NO":999,"REV_AT_EPOCH":2805,"BSTAR":0.000017461733,"MEAN_MOTION_DOT":-0.00000116,"MEAN_MOTION_DDOT":0},{"OBJECT_NAME":"HULIANWANG DIGUI-132","OBJECT_ID":"2025-311E","EPOCH":"2026-07-22T18:55:29.340192","CLASSIFICATION_TYPE":"U","MEAN_MOTION":13.29324352,"ECCENTRICITY":0.0000873,"INCLINATION":50.0082,"RA_OF_ASC_NODE":348.1978,"ARG_OF_PERICENTER":99.6244,"MEAN_ANOMALY":260.4726,"EPHEMERIS_TYPE":0,"NORAD_CAT_ID":67240,"ELEMENT_SET_NO":999,"REV_AT_EPOCH":2807,"BSTAR":0.000033140333,"MEAN_MOTION_DOT":-0.00000109,"MEAN_MOTION_DDOT":0},{"OBJECT_NAME":"HULIANWANG DIGUI-133","OBJECT_ID":"2025-311F","EPOCH":"2026-07-22T18:31:28.331616","CLASSIFICATION_TYPE":"U","MEAN_MOTION":13.29324212,"ECCENTRICITY":0.0000857,"INCLINATION":50.0124,"RA_OF_ASC_NODE":348.1881,"ARG_OF_PERICENTER":101.9082,"MEAN_ANOMALY":258.1887,"EPHEMERIS_TYPE":0,"NORAD_CAT_ID":67241,"ELEMENT_SET_NO":999,"REV_AT_EPOCH":2807,"BSTAR":0.000020056193,"MEAN_MOTION_DOT":-0.00000115,"MEAN_MOTION_DDOT":0},{"OBJECT_NAME":"HULIANWANG DIGUI-134","OBJECT_ID":"2025-311G","EPOCH":"2026-07-22T20:31:42.736800","CLASSIFICATION_TYPE":"U","MEAN_MOTION":13.29324089,"ECCENTRICITY":0.00008837,"INCLINATION":50.0052,"RA_OF_ASC_NODE":347.8417,"ARG_OF_PERICENTER":100.95,"MEAN_ANOMALY":259.1472,"EPHEMERIS_TYPE":0,"NORAD_CAT_ID":67242,"ELEMENT_SET_NO":999,"REV_AT_EPOCH":2808,"BSTAR":0.000052156142,"MEAN_MOTION_DOT":-0.000001,"MEAN_MOTION_DDOT":0},{"OBJECT_NAME":"HULIANWANG DIGUI-135","OBJECT_ID":"2025-311H","EPOCH":"2026-07-22T19:07:31.126656","CLASSIFICATION_TYPE":"U","MEAN_MOTION":13.29323819,"ECCENTRICITY":0.00008988,"INCLINATION":50.0042,"RA_OF_ASC_NODE":348.1735,"ARG_OF_PERICENTER":99.7511,"MEAN_ANOMALY":260.3463,"EPHEMERIS_TYPE":0,"NORAD_CAT_ID":67243,"ELEMENT_SET_NO":999,"REV_AT_EPOCH":2807,"BSTAR":0.000022321584,"MEAN_MOTION_DOT":-0.00000114,"MEAN_MOTION_DDOT":0},{"OBJECT_NAME":"HULIANWANG DIGUI-136","OBJECT_ID":"2025-311J","EPOCH":"2026-07-22T18:19:22.642464","CLASSIFICATION_TYPE":"U","MEAN_MOTION":13.29324744,"ECCENTRICITY":0.00008259,"INCLINATION":50.0114,"RA_OF_ASC_NODE":348.1244,"ARG_OF_PERICENTER":102.6347,"MEAN_ANOMALY":257.4618,"EPHEMERIS_TYPE":0,"NORAD_CAT_ID":67244,"ELEMENT_SET_NO":999,"REV_AT_EPOCH":2807,"BSTAR":0.00005182034,"MEAN_MOTION_DOT":-0.000001,"MEAN_MOTION_DDOT":0},{"OBJECT_NAME":"HULIANWANG DIGUI-137","OBJECT_ID":"2026-007A","EPOCH":"2026-07-23T07:36:44.844480","CLASSIFICATION_TYPE":"U","MEAN_MOTION":13.2932726,"ECCENTRICITY":0.00008661,"INCLINATION":50.0098,"RA_OF_ASC_NODE":316.2808,"ARG_OF_PERICENTER":144.2377,"MEAN_ANOMALY":215.8553,"EPHEMERIS_TYPE":0,"NORAD_CAT_ID":67435,"ELEMENT_SET_NO":999,"REV_AT_EPOCH":2559,"BSTAR":0.00003854204,"MEAN_MOTION_DOT":-0.00000106,"MEAN_MOTION_DDOT":0},{"OBJECT_NAME":"HULIANWANG DIGUI-138","OBJECT_ID":"2026-007B","EPOCH":"2026-07-23T06:12:36.339552","CLASSIFICATION_TYPE":"U","MEAN_MOTION":13.29325686,"ECCENTRICITY":0.00008579,"INCLINATION":50.0076,"RA_OF_ASC_NODE":316.605,"ARG_OF_PERICENTER":142.2826,"MEAN_ANOMALY":217.8107,"EPHEMERIS_TYPE":0,"NORAD_CAT_ID":67436,"ELEMENT_SET_NO":999,"REV_AT_EPOCH":2558,"BSTAR":0.000050142244,"MEAN_MOTION_DOT":-0.00000101,"MEAN_MOTION_DDOT":0},{"OBJECT_NAME":"HULIANWANG DIGUI-139","OBJECT_ID":"2026-007C","EPOCH":"2026-07-23T07:48:33.728832","CLASSIFICATION_TYPE":"U","MEAN_MOTION":13.29328634,"ECCENTRICITY":0.00008348,"INCLINATION":50.0046,"RA_OF_ASC_NODE":316.2451,"ARG_OF_PERICENTER":131.0518,"MEAN_ANOMALY":229.0426,"EPHEMERIS_TYPE":0,"NORAD_CAT_ID":67437,"ELEMENT_SET_NO":999,"REV_AT_EPOCH":2559,"BSTAR":0.000044505394,"MEAN_MOTION_DOT":-0.00000103,"MEAN_MOTION_DDOT":0}]}
